OBJECT_NAME,OBJECT_ID,EPOCH,MEAN_MOTION,ECCENTRICITY,INCLINATION,RA_OF_ASC_NODE,ARG_OF_PERICENTER,MEAN_ANOMALY,EPHEMERIS_TYPE,CLASSIFICATION_TYPE,NORAD_CAT_ID,ELEMENT_SET_NO,REV_AT_EPOCH,BSTAR,MEAN_MOTION_DOT,MEAN_MOTION_DDOT
GEOSCAN 3 (RS92S3),2025-155T,2026-06-30T22:36:52.724160,15.35855909,.00082397,97.4542,151.9836,123.3769,236.8265,0,U,64893,999,8296,.60609858E-3,.21121E-3,0
INNOSAT 3 (RS92S0),2025-155U,2026-06-30T22:04:43.917600,15.44815365,.00080169,97.4488,153.7536,121.1082,239.0954,0,U,64894,999,8308,.10180037E-2,.47886E-3,0
KNACKSAT-2,1998-067XZ,2026-06-30T08:24:10.954656,15.61112165,.00084933,51.6260,228.2118,273.6004,86.4018,0,U,67683,999,2233,.45592226E-3,.38944E-3,0
