KNACKSAT-2              
1 67683U 98067XZ  26181.35012679  .00038944  00000+0  45592-3 0  9996
2 67683  51.6260 228.2118 0008493 273.6004  86.4018 15.61112165 22338
GEOSCAN 3 (RS92S3)      
1 64893U 25155T   26181.94227690  .00021121  00000+0  60610-3 0  9997
2 64893  97.4542 151.9836 0008239 123.3769 236.8265 15.35855909 82966
INNOSAT 3 (RS92S0)      
1 64894U 25155U   26181.91995275  .00047886  00000+0  10180-2 0  9998
2 64894  97.4488 153.7536 0008016 121.1082 239.0954 15.44815365 83086
